ONEWEB-0249             
1 48967U 21060A   24272.45718013  .00000118  00000+0  27404-3 0  9998
2 48967  87.9173 353.6013 0001960  99.0803 261.0550 13.16595027157143
ONEWEB-0250             
1 48968U 21060B   24272.66807118  .00000049  00000+0  81741-4 0  9995
2 48968  87.9172 353.3553 0002582  98.6715 261.4713 13.25564647158495
ONEWEB-0252             
1 48970U 21060D   24272.79282906  .00000123  00000+0  28841-3 0  9998
2 48970  87.9166 353.5271 0001873 104.7844 255.3495 13.16596202158529
ONEWEB-0253             
1 48971U 21060E   24272.78174056 -.00000051  00000+0 -16735-3 0  9995
2 48971  87.9172 353.5402 0002083 106.6189 253.5171 13.16593959158448
ONEWEB-0254             
1 48972U 21060F   24272.48726109  .00000028  00000+0  39731-4 0  9999
2 48972  87.9180 353.5790 0002207 106.4473 253.6900 13.16595066157126
ONEWEB-0255             
1 48973U 21060G   24272.52525047  .00000223  00000+0  54844-3 0  9991
2 48973  87.9174 353.6046 0002301 104.3144 255.8242 13.16597036157203
ONEWEB-0256             
1 48974U 21060H   24272.77936313 -.00000020  00000+0 -86273-4 0  9990
2 48974  87.9177 353.5608 0001712 102.1488 257.9834 13.16596025158491
ONEWEB-0257             
1 48975U 21060J   24272.27984617  .00000040  00000+0  70993-4 0  9998
2 48975  87.9171 353.6274 0001887 106.6154 253.5185 13.16595399157097
